FENGYUN 1C DEB          
1 37447U 99025EHR 17345.24394825  .00000311  00000-0  19768-3 0  9996
2 37447  99.1160 358.7596 0043088 205.1719 216.3901 14.10836400221772
